MOLNIYA 2-9             
1 07276U 74026A   21053.18043657  .00000074  00000-0  00000-0 0  9997
2 07276  64.1851 299.0572 6716544 286.1892  13.8789  2.45094506237588
MOLNIYA 2-10            
1 07376U 74056A   21051.13140365 -.00000648  00000-0  00000-0 0  9996
2 07376  63.6285 143.5689 6672599 290.5590  12.8298  2.01093627340664
MOLNIYA 1-S             
1 07392U 74060A   21053.80743726  .00000121  00000-0  00000-0 0  9990
2 07392   6.2951 290.0006 0009034 188.6888  13.4122  1.00315326114714
MOLNIYA 1-29            
1 07780U 75036A   21053.66244144  .00000145  00000-0 -13661-1 0  9994
2 07780  63.2073 275.0179 7237625 289.4036   9.9644  2.00642017335993
MOLNIYA 2-14            
1 08195U 75081A   21053.66992517  .00001198  00000-0 -77567-2 0  9994
2 08195  63.2792 244.3667 7123363 293.9988   9.4885  2.02088657333257
MOLNIYA 1-32            
1 08601U 76006A   21053.09094496  .00000849  00000-0 -10346-2 0  9994
2 08601  63.0459  10.0461 7417584 281.3691  10.7265  2.00067433 43061
MOLNIYA 1-36            
1 09880U 77021A   21052.90868645  .00001327  00000-0  12129-3 0  9999
2 09880  63.0026 339.8455 7432921 287.4378   9.3882  2.00853554219765
MOLNIYA 3-8             
1 10455U 77105A   21053.16593702  .00001339  00000-0  23102-2 0  9995
2 10455  62.5991  73.1351 7349850 278.9276  11.6443  2.00699305317426
MOLNIYA 1-40            
1 10925U 78055A   21050.25561926  .00000782  00000-0  00000-0 0  9993
2 10925  62.6195 115.1588 7119161 278.8911  13.2157  2.00555759312989
MOLNIYA 3-10            
1 11057U 78095A   21053.88531735  .00000096  00000-0 -43472-5 0  9995
2 11057  62.8388 219.2365 5884221 303.6831  13.3507  4.09813653364082
MOLNIYA 3-13            
1 11896U 80063A   21053.45787443  .00000584  00000-0  00000-0 0  9992
2 11896  62.6022 197.0195 7063685 276.0715  14.3900  2.00602194297481
MOLNIYA 1-49            
1 12156U 81009A   21050.47785706 -.00000776  00000-0 -61843-3 0  9992
2 12156  61.8118 236.7182 7185821 255.8131  21.2363  2.05707811211550
MOLNIYA 1-52            
1 13012U 81123A   21052.77496384 -.00001331  00000-0  00000-0 0  9999
2 13012  62.9503 351.1793 7304484 249.4239  23.4890  2.00571010286936
MOLNIYA 1-53            
1 13070U 82015A   21053.62527094 -.00000876  00000-0 -11844-2 0  9996
2 13070  62.5347 280.4326 7345425 279.2946  11.6453  2.00881571285630
MOLNIYA 3-20            
1 13875U 83015A   21054.02866722 -.00000761  00000-0  00000+0 0  9990
2 13875  63.3018  65.9488 7285940 255.6187  20.3760  2.00431902214136
MOLNIYA 1-56            
1 13890U 83019A   21053.35284591 -.00001151  00000-0  00000-0 0  9999
2 13890  63.1632  91.6711 7275580 261.0246 312.0182  1.99946570276994
MOLNIYA 1-62            
1 15214U 84089A   21053.36703477 -.00000321  00000-0 -48062-3 0  9991
2 15214  62.7204  96.2889 7418680 266.5168  14.7379  1.97961192234742
MOLNIYA 1-63            
1 15429U 84124A   21053.91816681 -.00000002  00000-0  00000-0 0  9994
2 15429  63.7863 212.1711 6537940 264.1401 343.9036  2.00856257265133
MOLNIYA 3-24            
1 15738U 85040A   21053.17003719  .00000086  00000-0  00000-0 0  9994
2 15738  63.8281 166.0328 6560803 249.6748  32.0463  2.55628106291597
MOLNIYA 3-27            
1 16393U 85117A   21051.11572636  .00000033  00000-0  00000-0 0  9990
2 16393  64.6160 139.1444 6684095 253.4497  28.0514  2.12398917263930
MOLNIYA 1-69            
1 17078U 86089A   21051.32980507 -.00000241  00000-0  00000-0 0  9995
2 17078  64.0397 231.9707 6629368 263.5329  22.9656  2.00711991251146
MOLNIYA 3-31            
1 17328U 87008A   21053.40878982  .00000416  00000-0  00000-0 0  9992
2 17328  63.7787 180.6698 6749950 257.8642  24.7361  2.00543956246237
MOLNIYA 1-71            
1 18946U 88017A   21053.39959368  .00000346  00000-0  00000-0 0  9998
2 18946  63.5096 179.3385 6870435 259.1478  22.8247  2.00647087241426
MOLNIYA 1-75            
1 19807U 89014A   21053.10509273 -.00000269  00000-0  00000-0 0  9993
2 19807  64.3531 340.8679 7031845 269.8774  16.8610  2.00559154234447
MOLNIYA 1-80            
1 21118U 91012A   21053.21453180  .00000738  00000-0  00000-0 0  9999
2 21118  64.8006  27.2775 6875767 283.6149  13.5075  2.05234667221122
MOLNIYA 3-40            
1 21196U 91022A   21053.05786073  .00000795  00000-0  00000-0 0  9991
2 21196  64.8917  20.5402 6912586 280.3663  14.2346  2.03013496219936
MOLNIYA 1-81            
1 21426U 91043A   21053.52170460  .00000041  00000-0  00000-0 0  9993
2 21426  64.1609  45.1570 7077518 270.2555  16.2687  2.00617598217532
MOLNIYA 3-41            
1 21706U 91065A   21053.35686830 -.00000329  00000-0  00000-0 0  9992
2 21706  64.1284 215.8924 6711004 261.6428  23.1205  2.04350480217102
MOLNIYA 3-42            
1 22178U 92067A   21052.92873276  .00000135  00000-0  00000-0 0  9997
2 22178  64.7159 269.1341 6625108 274.3481  18.3800  2.20433221 69584
MOLNIYA 1-86            
1 22671U 93035A   21053.81885499 -.00000068  00000-0  21497-4 0  9993
2 22671  63.0996 153.9646 4846966   0.4681 359.8611  5.62614066325312
MOLNIYA 1-87            
1 22949U 93079A   21050.48345448  .00001282  00000-0  00000-0 0  9995
2 22949  63.4716 145.6133 6786154 287.5000  12.9819  2.02856118 65135
MOLNIYA 1-88            
1 23420U 94081A   21053.66743949  .00000033  00000-0  00000-0 0  9998
2 23420  64.2416 305.1378 5971616 290.7225  17.1923  3.34495110 97655
MOLNIYA 3-47            
1 23642U 95042A   21053.46416687  .00000975  00000-0  00000-0 0  9991
2 23642  63.3857 128.5640 6818456 287.1316  12.8982  2.01928439187344
MOLNIYA 1-90            
1 24960U 97054A   21053.62744066  .00000051  00000-0 -52307-3 0  9999
2 24960  63.5778 275.5528 6306086 300.7678  12.1434  3.18685793192718
MOLNIYA 1-91            
1 25485U 98054A   21053.54692713  .00000151  00000-0  22925-2 0  9997
2 25485  62.9356 227.4942 6964676 291.0205 145.4525  2.36442346167037
MOLNIYA 3-50            
1 25847U 99036A   21053.04236939  .00000047  00000-0 -29361-3 0  9996
2 25847  62.5886  51.9118 7427051 278.3036  11.3154  2.00599065158479
